STARLINK-2185
1 17767C 21017AX  21326.13785157  .00006380  00000-0  42734-3 0  3267
2 17767  53.0562  53.1225 0001302  81.3999 356.3916 15.06401635    12
